{"fetched_at":"2026-07-19T17:31:08.183Z","source":"https://celestrak.org/NORAD/elements/gp.php?GROUP=kuiper&FORMAT=JSON","constellation":"kuiper","records":[{"OBJECT_NAME":"KUIPER-00629","OBJECT_ID":"2026-151W","EPOCH":"2026-07-19T06:00:02.000160","CLASSIFICATION_TYPE":"U","MEAN_MOTION":15.30384521,"ECCENTRICITY":0.00064244,"INCLINATION":51.8788,"RA_OF_ASC_NODE":160.9811,"ARG_OF_PERICENTER":173.064,"MEAN_ANOMALY":287.9389,"EPHEMERIS_TYPE":0,"NORAD_CAT_ID":69783,"ELEMENT_SET_NO":999,"REV_AT_EPOCH":296,"BSTAR":-0.045030011,"MEAN_MOTION_DOT":-0.01234732,"MEAN_MOTION_DDOT":0},{"OBJECT_NAME":"KUIPER-00631","OBJECT_ID":"2026-151X","EPOCH":"2026-07-19T06:00:02.000160","CLASSIFICATION_TYPE":"U","MEAN_MOTION":15.2993912,"ECCENTRICITY":0.00081177,"INCLINATION":51.8755,"RA_OF_ASC_NODE":160.9634,"ARG_OF_PERICENTER":172.0235,"MEAN_ANOMALY":289.3926,"EPHEMERIS_TYPE":0,"NORAD_CAT_ID":69784,"ELEMENT_SET_NO":999,"REV_AT_EPOCH":130,"BSTAR":0.00018653728,"MEAN_MOTION_DOT":0.00005131,"MEAN_MOTION_DDOT":0},{"OBJECT_NAME":"KUIPER-00634","OBJECT_ID":"2026-151Y","EPOCH":"2026-07-19T06:39:48.966048","CLASSIFICATION_TYPE":"U","MEAN_MOTION":15.37805044,"ECCENTRICITY":0.00036821,"INCLINATION":51.8781,"RA_OF_ASC_NODE":160.6005,"ARG_OF_PERICENTER":150.3811,"MEAN_ANOMALY":209.7385,"EPHEMERIS_TYPE":0,"NORAD_CAT_ID":69785,"ELEMENT_SET_NO":999,"REV_AT_EPOCH":264,"BSTAR":0.00029463417,"MEAN_MOTION_DOT":0.0001074,"MEAN_MOTION_DDOT":0},{"OBJECT_NAME":"KUIPER-00639","OBJECT_ID":"2026-151Z","EPOCH":"2026-07-19T07:07:35.067360","CLASSIFICATION_TYPE":"U","MEAN_MOTION":15.35046639,"ECCENTRICITY":0.00095528,"INCLINATION":51.8695,"RA_OF_ASC_NODE":160.7195,"ARG_OF_PERICENTER":174.4078,"MEAN_ANOMALY":185.7017,"EPHEMERIS_TYPE":0,"NORAD_CAT_ID":69786,"ELEMENT_SET_NO":999,"REV_AT_EPOCH":264,"BSTAR":-0.000740866,"MEAN_MOTION_DOT":-0.00025915,"MEAN_MOTION_DDOT":0},{"OBJECT_NAME":"KUIPER-00641","OBJECT_ID":"2026-151AA","EPOCH":"2026-07-19T06:00:02.000160","CLASSIFICATION_TYPE":"U","MEAN_MOTION":15.34308057,"ECCENTRICITY":0.00114733,"INCLINATION":51.8681,"RA_OF_ASC_NODE":161.0246,"ARG_OF_PERICENTER":174.5198,"MEAN_ANOMALY":247.4049,"EPHEMERIS_TYPE":0,"NORAD_CAT_ID":69787,"ELEMENT_SET_NO":999,"REV_AT_EPOCH":327,"BSTAR":0.00056176036,"MEAN_MOTION_DOT":0.00018645,"MEAN_MOTION_DDOT":0},{"OBJECT_NAME":"KUIPER-00644","OBJECT_ID":"2026-151AB","EPOCH":"2026-07-19T06:00:02.000160","CLASSIFICATION_TYPE":"U","MEAN_MOTION":15.36532063,"ECCENTRICITY":0.00081185,"INCLINATION":51.875,"RA_OF_ASC_NODE":160.8847,"ARG_OF_PERICENTER":172.9715,"MEAN_ANOMALY":320.5134,"EPHEMERIS_TYPE":0,"NORAD_CAT_ID":69788,"ELEMENT_SET_NO":999,"REV_AT_EPOCH":357,"BSTAR":0.00071681589,"MEAN_MOTION_DOT":0.00025678,"MEAN_MOTION_DDOT":0},{"OBJECT_NAME":"KUIPER-00646","OBJECT_ID":"2026-151AC","EPOCH":"2026-07-19T07:05:36.320928","CLASSIFICATION_TYPE":"U","MEAN_MOTION":15.35627559,"ECCENTRICITY":0.00090966,"INCLINATION":51.8703,"RA_OF_ASC_NODE":160.7124,"ARG_OF_PERICENTER":181.1324,"MEAN_ANOMALY":178.9643,"EPHEMERIS_TYPE":0,"NORAD_CAT_ID":69789,"ELEMENT_SET_NO":999,"REV_AT_EPOCH":264,"BSTAR":-0.0018800721,"MEAN_MOTION_DOT":-0.00066035,"MEAN_MOTION_DDOT":0},{"OBJECT_NAME":"KUIPER-00647","OBJECT_ID":"2026-151AD","EPOCH":"2026-07-19T07:13:06.474432","CLASSIFICATION_TYPE":"U","MEAN_MOTION":15.35006699,"ECCENTRICITY":0.00105196,"INCLINATION":51.8664,"RA_OF_ASC_NODE":160.7423,"ARG_OF_PERICENTER":183.8759,"MEAN_ANOMALY":176.2147,"EPHEMERIS_TYPE":0,"NORAD_CAT_ID":69790,"ELEMENT_SET_NO":999,"REV_AT_EPOCH":264,"BSTAR":0.00062666842,"MEAN_MOTION_DOT":0.00021319,"MEAN_MOTION_DDOT":0},{"OBJECT_NAME":"KUIPER-00662","OBJECT_ID":"2026-151AE","EPOCH":"2026-07-19T05:25:20.041824","CLASSIFICATION_TYPE":"U","MEAN_MOTION":15.36544855,"ECCENTRICITY":0.00081997,"INCLINATION":51.875,"RA_OF_ASC_NODE":160.9998,"ARG_OF_PERICENTER":173.5382,"MEAN_ANOMALY":186.5711,"EPHEMERIS_TYPE":0,"NORAD_CAT_ID":69791,"ELEMENT_SET_NO":999,"REV_AT_EPOCH":263,"BSTAR":0.00027574216,"MEAN_MOTION_DOT":0.0000962,"MEAN_MOTION_DDOT":0}]}
